[{"OBJECT_NAME":"STRIX-2","OBJECT_ID":"2024-248A","EPOCH":"2026-03-09T23:00:54.819648","MEAN_MOTION":15.07630986,"ECCENTRICITY":0.00151844,"INCLINATION":97.6197,"RA_OF_ASC_NODE":25.3276,"ARG_OF_PERICENTER":319.5195,"MEAN_ANOMALY":40.4902,"EPHEMERIS_TYPE":0,"CLASSIFICATION_TYPE":"U","NORAD_CAT_ID":62406,"ELEMENT_SET_NO":999,"REV_AT_EPOCH":6663,"BSTAR":0.00066021351,"MEAN_MOTION_DOT":0.00010025,"MEAN_MOTION_DDOT":0},{"OBJECT_NAME":"STARLINK-34166","OBJECT_ID":"2025-112N","EPOCH":"2026-03-09T22:53:54.227904","MEAN_MOTION":15.05654652,"ECCENTRICITY":0.00016334,"INCLINATION":97.6036,"RA_OF_ASC_NODE":121.714,"ARG_OF_PERICENTER":137.9777,"MEAN_ANOMALY":222.1575,"EPHEMERIS_TYPE":0,"CLASSIFICATION_TYPE":"U","NORAD_CAT_ID":64158,"ELEMENT_SET_NO":999,"REV_AT_EPOCH":4334,"BSTAR":0.00042861522,"MEAN_MOTION_DOT":6.13e-5,"MEAN_MOTION_DDOT":0}]
